NORAD_CAT_ID,OBJECT_NAME,OBJECT_TYPE,EPOCH,MEAN_MOTION,ECCENTRICITY,INCLINATION,RA_OF_ASC_NODE,ARG_OF_PERICENTER,MEAN_ANOMALY,BSTAR,MEAN_MOTION_DOT,MEAN_MOTION_DDOT,TLE_LINE0,TLE_LINE1,TLE_LINE2,SEMIMAJOR_AXIS,PERIOD,APOGEE,PERIGEE,DECAYED
49725.0,STARLINK-3218,PAYLOAD,2022-05-11 22:00:00,15.08821808,0.0002469,53.2174,303.9642,32.9692,236.9157,0.0028882,0.00045956,0.0,0 STARLINK-3218,1 49725U 21115B   22131.91667824  .00045956  00000-0  28882-2 0  9998,2 49725  53.2174 303.9642 0002469  32.9692 236.9157 15.08821808  1308,6917.936,95.439,541.509,538.0930000000002,0.0
49725.0,STARLINK-3218,PAYLOAD,2022-05-12 14:00:01,15.08848547,0.000231,53.2174,300.9698,35.195,257.8697,-0.0007067,-0.00011521,0.0,0 STARLINK-3218,1 49725U 21115B   22132.58334491 -.00011521  00000-0 -70670-3 0  9999,2 49725  53.2174 300.9698 0002310  35.1950 257.8697 15.08848547  1303,6917.854,95.437,541.317,538.121,0.0
49725.0,STARLINK-3218,PAYLOAD,2022-05-12 20:00:01,15.08827603,0.0002509,53.2175,299.8488,32.4228,179.3485,0.0024372,0.00038701,0.0,0 STARLINK-3218,1 49725U 21115B   22132.83334491  .00038701  00000-0  24372-2 0  9991,2 49725  53.2175 299.8488 0002509  32.4228 179.3485 15.08827603 25775,6917.918000000002,95.438,541.519,538.048,0.0
49725.0,STARLINK-3218,PAYLOAD,2022-05-12 22:00:00,15.08825056,0.0002503,53.2174,299.4748,31.3637,273.3073,0.0034797,0.00055507,0.0,0 STARLINK-3218,1 49725U 21115B   22132.91667824  .00055507  00000-0  34797-2 0  9994,2 49725  53.2174 299.4748 0002503  31.3637 273.3073 15.08825056  1306,6917.926,95.438,541.523,538.06,0.0
49725.0,STARLINK-3218,PAYLOAD,2022-05-13 12:00:02,15.088401500000002,0.0002274,53.2178,296.8541,34.0518,200.9825,0.00054886,8.458e-05,0.0,0 STARLINK-3218,1 49725U 21115B   22133.50002315  .00008458  00000-0  54886-3 0  9993,2 49725  53.2178 296.8541 0002274  34.0518 200.9825 15.08840150 25876,6917.88,95.438,541.318,538.172,0.0
49725.0,STARLINK-3218,PAYLOAD,2022-05-13 14:00:01,15.08855416,0.0002324,53.2178,296.4805,32.5313,295.3354,-0.0015734,-0.00025253,0.0,0 STARLINK-3218,1 49725U 21115B   22133.58334491 -.00025253  00000-0 -15734-2 0  9996,2 49725  53.2178 296.4805 0002324  32.5313 295.3354 15.08855416  1305,6917.833000000001,95.437,541.306,538.091,0.0
49725.0,STARLINK-3218,PAYLOAD,2022-05-13 22:00:00,15.088176,0.0002487,53.2177,294.9852,28.3942,311.0809,0.0015893,0.00025081,0.0,0 STARLINK-3218,1 49725U 21115B   22133.91667824  .00025081  00000-0  15893-2 0  9995,2 49725  53.2177 294.9852 0002487  28.3942 311.0809 15.08817600  1304,6917.949000000001,95.439,541.534,538.0930000000002,0.0
49725.0,STARLINK-3218,PAYLOAD,2022-05-14 04:00:00,15.08837261,0.0002337,53.218,293.8614,29.2763,228.8846,-0.00039105,-6.506e-05,0.0,0 STARLINK-3218,1 49725U 21115B   22134.16667824 -.00006506  00000-0 -39105-3 0  9999,2 49725  53.2180 293.8614 0002337  29.2763 228.8846 15.08837261 25977,6917.889,95.438,541.37,538.137,0.0
49725.0,STARLINK-3218,PAYLOAD,2022-05-14 14:00:01,15.0887329,0.0002342,53.2183,291.9912,29.9609,332.6804,-0.003594,-0.00057088,0.0,0 STARLINK-3218,1 49725U 21115B   22134.58334491 -.00057088  00000-0 -35940-2 0  9999,2 49725  53.2183 291.9912 0002342  29.9609 332.6804 15.08873290  1303,6917.779,95.435,541.264,538.023,0.0
49725.0,STARLINK-3218,PAYLOAD,2022-05-14 20:00:01,15.08819845,0.0002519,53.2183,290.8699,27.6254,253.7448,0.002686,0.00042696,0.0,0 STARLINK-3218,1 49725U 21115B   22134.83334491  .00042696  00000-0  26860-2 0  9995,2 49725  53.2183 290.8699 0002519  27.6254 253.7448 15.08819845 26074,6917.941999999999,95.439,541.55,538.064,0.0
49725.0,STARLINK-3218,PAYLOAD,2022-05-14 22:00:00,15.08819837,0.0002498,53.2181,290.4957,26.1129,348.1545,0.0033559,0.00053499,0.0,0 STARLINK-3218,1 49725U 21115B   22134.91667824  .00053499  00000-0  33559-2 0  9999,2 49725  53.2181 290.4957 0002498  26.1129 348.1545 15.08819837  1303,6917.941999999999,95.439,541.535,538.0790000000002,0.0
49725.0,STARLINK-3218,PAYLOAD,2022-05-15 12:00:00,15.08833934,0.0002282,53.218,287.8741,26.0407,278.5003,-0.0059181,-0.00093247,0.0,0 STARLINK-3218,1 49725U 21115B   22135.50001157 -.00093247  00000-0 -59181-2 0  9992,2 49725  53.2180 287.8741 0002282  26.0407 278.5003 15.08833934 26173,6917.899,95.438,541.3430000000002,538.185,0.0
49725.0,STARLINK-3218,PAYLOAD,2022-05-15 14:00:01,15.08753969,0.0002326,53.2181,287.5004,26.3518,11.1638,0.0040171,0.00064076,0.0,0 STARLINK-3218,1 49725U 21115B   22135.58335648  .00064076  00000-0  40171-2 0  9990,2 49725  53.2181 287.5004 0002326  26.3518  11.1638 15.08753969  1300,6918.143,95.443,541.618,538.399,0.0
49725.0,STARLINK-3218,PAYLOAD,2022-05-15 20:00:01,15.08824169,0.0002518,53.2186,286.3807,26.4658,289.6784,0.0013198,0.0002077,0.0,0 STARLINK-3218,1 49725U 21115B   22135.83334491  .00020770  00000-0  13198-2 0  9995,2 49725  53.2186 286.3807 0002518  26.4658 289.6784 15.08824169 26225,6917.929,95.439,541.536,538.052,0.0
49725.0,STARLINK-3218,PAYLOAD,2022-05-15 22:00:00,15.08819163,0.0002514,53.2184,286.0064,25.5666,23.4765,0.0021343,0.00033824,0.0,0 STARLINK-3218,1 49725U 21115B   22135.91667824  .00033824  00000-0  21343-2 0  9998,2 49725  53.2184 286.0064 0002514  25.5666  23.4765 15.08819163  1303,6917.944,95.439,541.548,538.07,0.0
49725.0,STARLINK-3218,PAYLOAD,2022-05-16 12:00:00,15.08863756,0.0002341,53.219,283.3867,31.6727,307.6295,-0.0034431,-0.00054707,0.0,0 STARLINK-3218,1 49725U 21115B   22136.50001157 -.00054707  00000-0 -34431-2 0  9992,2 49725  53.2190 283.3867 0002341  31.6727 307.6295 15.08863756 26326,6917.808000000001,95.436,541.2919999999998,538.053,0.0
49725.0,STARLINK-3218,PAYLOAD,2022-05-16 14:00:01,15.08857954,0.0002425,53.2188,283.0132,30.8446,41.361,-0.0039304,-0.00062333,0.0,0 STARLINK-3218,1 49725U 21115B   22136.58334491 -.00062333  00000-0 -39304-2 0  9998,2 49725  53.2188 283.0132 0002425  30.8446  41.3610 15.08857954  1304,6917.826,95.436,541.368,538.013,0.0
49725.0,STARLINK-3218,PAYLOAD,2022-05-16 22:00:00,15.08813161,0.0002553,53.2183,281.5175,27.6037,56.2033,0.0011209,0.00017583,0.0,0 STARLINK-3218,1 49725U 21115B   22136.91667824  .00017583  00000-0  11209-2 0  9993,2 49725  53.2183 281.5175 0002553  27.6037  56.2033 15.08813161  1307,6917.962,95.439,541.594,538.061,0.0
49725.0,STARLINK-3218,PAYLOAD,2022-05-17 04:00:00,15.08812682,0.0002355,53.2185,280.3938,29.9676,332.5227,0.0017192999999999,0.00027161,0.0,0 STARLINK-3218,1 49725U 21115B   22137.16667824  .00027161  00000-0  17193-2 0  9992,2 49725  53.2185 280.3938 0002355  29.9676 332.5227 15.08812682 26429,6917.964,95.439,541.4580000000002,538.2,0.0
49725.0,STARLINK-3218,PAYLOAD,2022-05-17 14:00:01,15.0894508,0.0002436,53.2182,278.5231,30.2878,76.75,-0.017985,-0.00276526,0.0,0 STARLINK-3218,1 49725U 21115B   22137.58335648 -.00276526  00000-0 -17985-1 0  9995,2 49725  53.2182 278.5231 0002436  30.2878  76.7500 15.08945080  1300,6917.559,95.431,541.109,537.739,0.0
49725.0,STARLINK-3218,PAYLOAD,2022-05-17 20:00:01,15.08708216,0.0002371,53.2177,277.4016,36.5689,349.1695,0.0069156,0.00111114,0.0,0 STARLINK-3218,1 49725U 21115B   22137.83334491  .00111114  00000-0  69156-2 0  9995,2 49725  53.2177 277.4016 0002371  36.5689 349.1695 15.08708216 26521,6918.283,95.446,541.789,538.508,0.0
49725.0,STARLINK-3218,PAYLOAD,2022-05-17 22:00:01,15.08655476,0.0002307,53.2173,277.0269,34.8557,83.8334,0.015851,0.00260119,0.0,0 STARLINK-3218,1 49725U 21115B   22137.91668981  .00260119  00000-0  15851-1 0  9990,2 49725  53.2173 277.0269 0002307  34.8557  83.8334 15.08655476  1307,6918.444,95.449,541.906,538.7130000000002,0.0
49725.0,STARLINK-3218,PAYLOAD,2022-05-18 04:00:01,15.08808903,0.0002338,53.2182,275.905,29.5641,7.8021,0.0017579999999999,0.00027778,0.0,0 STARLINK-3218,1 49725U 21115B   22138.16668981  .00027778  00000-0  17580-2 0  9992,2 49725  53.2182 275.9050 0002338  29.5641   7.8021 15.08808903 26571,6917.975,95.44,541.4580000000002,538.2230000000002,0.0
49725.0,STARLINK-3218,PAYLOAD,2022-05-18 14:00:01,15.08824819,0.0002504,53.2181,274.0359,30.9597,110.8102,-0.001038,-0.00016764,0.0,0 STARLINK-3218,1 49725U 21115B   22138.58334491 -.00016764  00000-0 -10380-2 0  9990,2 49725  53.2181 274.0359 0002504  30.9597 110.8102 15.08824819  1306,6917.927,95.439,541.524,538.06,0.0
49725.0,STARLINK-3218,PAYLOAD,2022-05-18 20:00:01,15.08801519,0.0002624,53.2178,272.9146,29.2215,31.2311,0.0038358,0.00061227,0.0,0 STARLINK-3218,1 49725U 21115B   22138.83334491  .00061227  00000-0  38358-2 0  9995,2 49725  53.2178 272.9146 0002624  29.2215  31.2311 15.08801519 26671,6917.998000000001,95.44,541.678,538.048,0.0
49725.0,STARLINK-3218,PAYLOAD,2022-05-18 22:00:00,15.08830888,0.0002627,53.2176,272.5401,28.9114,124.426,0.00064285,9.955e-05,0.0,0 STARLINK-3218,1 49725U 21115B   22138.91667824  .00009955  00000-0  64285-3 0  9992,2 49725  53.2176 272.5401 0002627  28.9114 124.4260 15.08830888  1308,6917.908,95.438,541.591,537.956,0.0
49725.0,STARLINK-3218,PAYLOAD,2022-05-19 04:00:00,15.08852375,0.0002501,53.2176,271.4148,32.0915,39.9356,-0.005708,-0.00090034,0.0,0 STARLINK-3218,1 49725U 21115B   22139.16667824 -.00090034  00000-0 -57080-2 0  9994,2 49725  53.2176 271.4148 0002501  32.0915  39.9356 15.08852375 26724,6917.843000000003,95.437,541.438,537.977,0.0
49725.0,STARLINK-3218,PAYLOAD,2022-05-19 14:00:01,15.08838181,0.0002555,53.2177,269.5473,29.8696,146.7182,-0.00046537,-7.687e-05,0.0,0 STARLINK-3218,1 49725U 21115B   22139.58335648 -.00007687  00000-0 -46537-3 0  9994,2 49725  53.2177 269.5473 0002555  29.8696 146.7182 15.08838181  1303,6917.886,95.438,541.518,537.9830000000002,0.0
49725.0,STARLINK-3218,PAYLOAD,2022-05-19 20:00:01,15.08837163,0.0002652,53.2175,268.4258,26.4247,68.8035,0.00097151,0.00015206,0.0,0 STARLINK-3218,1 49725U 21115B   22139.83334491  .00015206  00000-0  97151-3 0  9999,2 49725  53.2175 268.4258 0002652  26.4247  68.8035 15.08837163 26827,6917.889,95.438,541.589,537.919,0.0
